[{"OBJECT_NAME":"KUIPER-00107","OBJECT_ID":"2025-171P","EPOCH":"2026-03-09T10:01:55.263072","MEAN_MOTION":14.79944344,"ECCENTRICITY":5.032e-5,"INCLINATION":51.898,"RA_OF_ASC_NODE":149.2906,"ARG_OF_PERICENTER":95.2186,"MEAN_ANOMALY":264.8834,"EPHEMERIS_TYPE":0,"CLASSIFICATION_TYPE":"U","NORAD_CAT_ID":65145,"ELEMENT_SET_NO":999,"REV_AT_EPOCH":3299,"BSTAR":-7.1654312e-5,"MEAN_MOTION_DOT":-7.67e-6,"MEAN_MOTION_DDOT":0},{"OBJECT_NAME":"CZ-4B DEB","OBJECT_ID":"1999-057EW","EPOCH":"2026-03-09T19:11:55.948704","MEAN_MOTION":14.7649363,"ECCENTRICITY":0.00549869,"INCLINATION":98.342,"RA_OF_ASC_NODE":152.0242,"ARG_OF_PERICENTER":314.0743,"MEAN_ANOMALY":45.5945,"EPHEMERIS_TYPE":0,"CLASSIFICATION_TYPE":"U","NORAD_CAT_ID":26260,"ELEMENT_SET_NO":999,"REV_AT_EPOCH":36943,"BSTAR":0.0011045642,"MEAN_MOTION_DOT":7.834e-5,"MEAN_MOTION_DDOT":0}]
